{
  "norad_id": 55375,
  "name": "STARLINK-5588",
  "history": [
    {
      "epoch": "2026-03-28T17:46:48.411840Z",
      "apogee_km": 537.1272973585583,
      "perigee_km": 531.0774289783385,
      "latitude_deg": -1.431176147302535e-05,
      "longitude_deg": 116.22372952177092,
      "height_km": 535.5677790032325,
      "semi_major_axis_km": 6912.239363168448,
      "eccentricity": 0.00043762,
      "inclination_deg": 43.0018,
      "raan_deg": 209.0824,
      "arg_perigee_deg": 236.1358,
      "mean_anomaly_deg": 123.9071,
      "mean_motion_rev_day": 15.10687406
    },
    {
      "epoch": "2026-03-29T04:53:51.289440Z",
      "apogee_km": 537.4382399106798,
      "perigee_km": 535.5228908450699,
      "latitude_deg": 2.9065424218236392e-05,
      "longitude_deg": -53.5395923206222,
      "height_km": 536.3129857653498,
      "semi_major_axis_km": 6914.617565377875,
      "eccentricity": 0.0001385,
      "inclination_deg": 43.0003,
      "raan_deg": 206.5376,
      "arg_perigee_deg": 266.77,
      "mean_anomaly_deg": 93.2987,
      "mean_motion_rev_day": 15.09908098
    },
    {
      "epoch": "2026-03-29T08:04:22.527840Z",
      "apogee_km": 537.433221853471,
      "perigee_km": 535.5325311418183,
      "latitude_deg": -2.8079930327525902e-06,
      "longitude_deg": -102.02729298978032,
      "height_km": 536.3368561318858,
      "semi_major_axis_km": 6914.619876497644,
      "eccentricity": 0.00013744,
      "inclination_deg": 43.0003,
      "raan_deg": 205.8105,
      "arg_perigee_deg": 265.4416,
      "mean_anomaly_deg": 94.6272,
      "mean_motion_rev_day": 15.09907341
    },
    {
      "epoch": "2026-03-30T15:49:34.569696Z",
      "apogee_km": 537.4040881517276,
      "perigee_km": 535.5621716415262,
      "latitude_deg": -2.825600599361421e-05,
      "longitude_deg": 133.0973430302012,
      "height_km": 536.2734756665527,
      "semi_major_axis_km": 6914.620129896627,
      "eccentricity": 0.00013319,
      "inclination_deg": 43.0002,
      "raan_deg": 198.5394,
      "arg_perigee_deg": 269.258,
      "mean_anomaly_deg": 90.8112,
      "mean_motion_rev_day": 15.09907258
    },
    {
      "epoch": "2026-03-31T14:03:12.428928Z",
      "apogee_km": 537.5541274810575,
      "perigee_km": 535.3483738290979,
      "latitude_deg": -2.6117593685251687e-05,
      "longitude_deg": 153.68656175179467,
      "height_km": 536.0253236262606,
      "semi_major_axis_km": 6914.588250655077,
      "eccentricity": 0.0001595,
      "inclination_deg": 43.0,
      "raan_deg": 193.4492,
      "arg_perigee_deg": 280.6883,
      "mean_anomaly_deg": 79.3782,
      "mean_motion_rev_day": 15.099177
    },
    {
      "epoch": "2026-04-01T20:00:01.999008Z",
      "apogee_km": 537.5608319757857,
      "perigee_km": 535.3467799997079,
      "latitude_deg": -31.40899404900331,
      "longitude_deg": 15.760869942475386,
      "height_km": 544.1777198732818,
      "semi_major_axis_km": 6914.5908059877465,
      "eccentricity": 0.0001601,
      "inclination_deg": 43.0007,
      "raan_deg": 186.5922,
      "arg_perigee_deg": 270.8478,
      "mean_anomaly_deg": 39.6485,
      "mean_motion_rev_day": 15.09916863
    },
    {
      "epoch": "2026-04-02T00:00:02.000160Z",
      "apogee_km": 537.5414362477686,
      "perigee_km": 535.2946207368104,
      "latitude_deg": 27.54866246506365,
      "longitude_deg": 141.5106669982195,
      "height_km": 537.3069073625805,
      "semi_major_axis_km": 6914.555028492289,
      "eccentricity": 0.00016247,
      "inclination_deg": 43.0009,
      "raan_deg": 185.675,
      "arg_perigee_deg": 264.7636,
      "mean_anomaly_deg": 232.7303,
      "mean_motion_rev_day": 15.09928582
    },
    {
      "epoch": "2026-04-02T23:12:33.093216Z",
      "apogee_km": 537.363670784558,
      "perigee_km": 535.5444418776369,
      "latitude_deg": -2.8731564574172477e-05,
      "longitude_deg": 0.9140574163401858,
      "height_km": 536.2717369121361,
      "semi_major_axis_km": 6914.591056331097,
      "eccentricity": 0.00013155,
      "inclination_deg": 42.9996,
      "raan_deg": 180.3601,
      "arg_perigee_deg": 267.5208,
      "mean_anomaly_deg": 92.5486,
      "mean_motion_rev_day": 15.09916781
    },
    {
      "epoch": "2026-04-04T11:43:32.742624Z",
      "apogee_km": 537.987550713704,
      "perigee_km": 534.9943465672968,
      "latitude_deg": 6.839848984229202e-06,
      "longitude_deg": 163.30437342362748,
      "height_km": 536.1480246947128,
      "semi_major_axis_km": 6914.6279486405,
      "eccentricity": 0.00021644,
      "inclination_deg": 43.0059,
      "raan_deg": 171.9986,
      "arg_perigee_deg": 274.7001,
      "mean_anomaly_deg": 85.3597,
      "mean_motion_rev_day": 15.09904697
    },
    {
      "epoch": "2026-04-05T06:46:39.422208Z",
      "apogee_km": 537.498005618897,
      "perigee_km": 535.3074794284657,
      "latitude_deg": -1.773871633510275e-05,
      "longitude_deg": -127.6222172799281,
      "height_km": 536.0808229104027,
      "semi_major_axis_km": 6914.5397425236815,
      "eccentricity": 0.0001584,
      "inclination_deg": 42.9998,
      "raan_deg": 167.6323,
      "arg_perigee_deg": 275.2652,
      "mean_anomaly_deg": 84.8012,
      "mean_motion_rev_day": 15.09933589
    },
    {
      "epoch": "2026-04-05T13:07:42.225600Z",
      "apogee_km": 537.4583575819988,
      "perigee_km": 535.5443856807315,
      "latitude_deg": -4.083323240304265e-05,
      "longitude_deg": 135.401959603099,
      "height_km": 536.163107957653,
      "semi_major_axis_km": 6914.638371631365,
      "eccentricity": 0.0001384,
      "inclination_deg": 43.0007,
      "raan_deg": 166.179,
      "arg_perigee_deg": 277.01,
      "mean_anomaly_deg": 83.0587,
      "mean_motion_rev_day": 15.09901283
    },
    {
      "epoch": "2026-04-06T05:00:17.913024Z",
      "apogee_km": 537.4710777192668,
      "perigee_km": 535.495432419988,
      "latitude_deg": -1.823803242881114e-05,
      "longitude_deg": -107.03424319360603,
      "height_km": 536.1094843153278,
      "semi_major_axis_km": 6914.620255069627,
      "eccentricity": 0.00014286,
      "inclination_deg": 43.0014,
      "raan_deg": 162.5435,
      "arg_perigee_deg": 278.8756,
      "mean_anomaly_deg": 81.1927,
      "mean_motion_rev_day": 15.09907217
    },
    {
      "epoch": "2026-04-07T11:10:14.267424Z",
      "apogee_km": 537.4346306899442,
      "perigee_km": 535.5169319811694,
      "latitude_deg": 2.8759904343867865e-05,
      "longitude_deg": 152.33393420977856,
      "height_km": 536.0853137546015,
      "semi_major_axis_km": 6914.612781335557,
      "eccentricity": 0.00013867,
      "inclination_deg": 43.0007,
      "raan_deg": 155.6353,
      "arg_perigee_deg": 280.1509,
      "mean_anomaly_deg": 79.918,
      "mean_motion_rev_day": 15.09909665
    },
    {
      "epoch": "2026-04-08T12:34:24.014784Z",
      "apogee_km": 537.3838960414769,
      "perigee_km": 535.5771064883966,
      "latitude_deg": 6.339958464376163e-05,
      "longitude_deg": 124.43340183512122,
      "height_km": 536.1199285163663,
      "semi_major_axis_km": 6914.617501264936,
      "eccentricity": 0.00013065,
      "inclination_deg": 43.0009,
      "raan_deg": 149.8186,
      "arg_perigee_deg": 278.8539,
      "mean_anomaly_deg": 81.2159,
      "mean_motion_rev_day": 15.09908119
    },
    {
      "epoch": "2026-04-09T02:51:44.038080Z",
      "apogee_km": 537.4568539424663,
      "perigee_km": 535.5009856833885,
      "latitude_deg": 4.657126854229779e-06,
      "longitude_deg": -93.7592171085529,
      "height_km": 536.1506271002637,
      "semi_major_axis_km": 6914.615919812927,
      "eccentricity": 0.00014143,
      "inclination_deg": 43.0018,
      "raan_deg": 146.5463,
      "arg_perigee_deg": 276.2794,
      "mean_anomaly_deg": 83.789,
      "mean_motion_rev_day": 15.09908637
    },
    {
      "epoch": "2026-04-10T04:15:53.287776Z",
      "apogee_km": 537.4062432134097,
      "perigee_km": 535.5388837546952,
      "latitude_deg": 1.8451372211408823e-05,
      "longitude_deg": -121.6592922375755,
      "height_km": 536.1820810863636,
      "semi_major_axis_km": 6914.609563484052,
      "eccentricity": 0.00013503,
      "inclination_deg": 43.0021,
      "raan_deg": 140.728,
      "arg_perigee_deg": 274.2461,
      "mean_anomaly_deg": 85.823,
      "mean_motion_rev_day": 15.09910719
    },
    {
      "epoch": "2026-04-11T18:22:06.691008Z",
      "apogee_km": 537.8048393078088,
      "perigee_km": 535.0915560762342,
      "latitude_deg": -1.4098814937495908e-05,
      "longitude_deg": 16.49095879303089,
      "height_km": 536.2068661792636,
      "semi_major_axis_km": 6914.585197692021,
      "eccentricity": 0.0001962,
      "inclination_deg": 42.9994,
      "raan_deg": 131.999,
      "arg_perigee_deg": 270.8516,
      "mean_anomaly_deg": 89.2104,
      "mean_motion_rev_day": 15.099187
    },
    {
      "epoch": "2026-04-13T02:07:17.489568Z",
      "apogee_km": 537.2895838135346,
      "perigee_km": 535.5667507564531,
      "latitude_deg": -2.2143784066622908e-05,
      "longitude_deg": -108.37789396391372,
      "height_km": 536.220008232125,
      "semi_major_axis_km": 6914.565167284994,
      "eccentricity": 0.00012458,
      "inclination_deg": 43.0023,
      "raan_deg": 124.7292,
      "arg_perigee_deg": 269.1177,
      "mean_anomaly_deg": 90.9525,
      "mean_motion_rev_day": 15.09925261
    },
    {
      "epoch": "2026-04-14T17:48:49.070304Z",
      "apogee_km": 537.2619260499332,
      "perigee_km": 535.6784810003255,
      "latitude_deg": 5.195275610669388e-06,
      "longitude_deg": 5.521253586676598,
      "height_km": 536.2732440803508,
      "semi_major_axis_km": 6914.607203525129,
      "eccentricity": 0.0001145,
      "inclination_deg": 43.0028,
      "raan_deg": 115.64,
      "arg_perigee_deg": 268.2268,
      "mean_anomaly_deg": 91.8446,
      "mean_motion_rev_day": 15.09911492
    }
  ]
}